[{"OBJECT_NAME":"STARLINK-2036","OBJECT_ID":"2021-012AJ","EPOCH":"2026-03-10T00:00:02.999808","MEAN_MOTION":15.43145644,"ECCENTRICITY":0.00019859,"INCLINATION":53.161,"RA_OF_ASC_NODE":63.0833,"ARG_OF_PERICENTER":97.7885,"MEAN_ANOMALY":132.9108,"EPHEMERIS_TYPE":0,"CLASSIFICATION_TYPE":"U","NORAD_CAT_ID":47652,"ELEMENT_SET_NO":999,"REV_AT_EPOCH":585,"BSTAR":0.0033754047,"MEAN_MOTION_DOT":0.00154499,"MEAN_MOTION_DDOT":0},{"OBJECT_NAME":"TIGER-8","OBJECT_ID":"2024-043Y","EPOCH":"2026-03-09T21:57:37.994976","MEAN_MOTION":15.4266091,"ECCENTRICITY":0.00078916,"INCLINATION":97.5394,"RA_OF_ASC_NODE":213.8577,"ARG_OF_PERICENTER":193.5254,"MEAN_ANOMALY":166.5783,"EPHEMERIS_TYPE":0,"CLASSIFICATION_TYPE":"U","NORAD_CAT_ID":59120,"ELEMENT_SET_NO":999,"REV_AT_EPOCH":11247,"BSTAR":0.00030254889,"MEAN_MOTION_DOT":0.00013113,"MEAN_MOTION_DDOT":0}]
